
# Worst residual: 23.01 km
# MJD 55552.000000 (2010 Dec 22  0:00)
2010-050B = RV223A9 = Chang'e 2 booster
1 37175U 10050B   10356.49923398  .00000000  00000-0  00000-0 2  4651
2 37175 078.6829 341.4771 2902927 306.3964 155.3432 00.04874770    04

# Worst residual: 27.09 km
# MJD 55553.000000 (2010 Dec 23  0:00)
2010-050B = RV223A9 = Chang'e 2 booster
1 37175U 10050B   10357.49923398  .00000000  00000-0  00000-0 2  4652
2 37175 078.8052 341.2326 2880519 305.8309 173.9993 00.04867612    02

# Worst residual: 38.71 km
# MJD 55554.000000 (2010 Dec 24  0:00)
2010-050B = RV223A9 = Chang'e 2 booster
1 37175U 10050B   10358.49923398  .00000000  00000-0  00000-0 2  4653
2 37175 079.0019 340.9686 2842058 304.9967 192.9841 00.04844480    00

# Worst residual: 59.85 km
# MJD 55555.000000 (2010 Dec 25  0:00)
2010-050B = RV223A9 = Chang'e 2 booster
1 37175U 10050B   10359.49923398  .00000000  00000-0  00000-0 2  4654
2 37175 079.2766 340.7097 2767180 303.4565 212.6655 00.04787295    08

# Worst residual: 82.11 km
# MJD 55556.000000 (2010 Dec 26  0:00)
2010-050B = RV223A9 = Chang'e 2 booster
1 37175U 10050B   10360.49923398  .00000000  00000-0  00000-0 2  4656
2 37175 079.4819 340.5740 2638213 300.1784 233.8441 00.04667857    02

# Worst residual: 67.36 km
# MJD 55557.000000 (2010 Dec 27  0:00)
2010-050B = RV223A9 = Chang'e 2 booster
1 37175U 10050B   10361.49923398  .00000000  00000-0  00000-0 2  4657
2 37175 079.2973 340.6374 2518004 294.9896 256.2686 00.04504996    08

# Worst residual: 56.25 km
# MJD 55558.000000 (2010 Dec 28  0:00)
2010-050B = RV223A9 = Chang'e 2 booster
1 37175U 10050B   10362.49923398  .00000000  00000-0  00000-0 2  4658
2 37175 078.8071 340.7074 2494819 290.9929 276.7665 00.04389554    05

# Worst residual: 36.22 km
# MJD 55559.000000 (2010 Dec 29  0:00)
2010-050B = RV223A9 = Chang'e 2 booster
1 37175U 10050B   10363.49923398  .00000000  00000-0  00000-0 2  4659
2 37175 078.4109 340.6669 2527005 289.4946 294.4044 00.04338931    09

# Worst residual: 23.57 km
# MJD 55560.000000 (2010 Dec 30  0:00)
2010-050B = RV223A9 = Chang'e 2 booster
1 37175U 10050B   10364.49923398  .00000000  00000-0  00000-0 2  4650
2 37175 078.1848 340.5731 2566064 289.2674 310.6218 00.04316668    06

# Worst residual: 16.27 km
# MJD 55561.000000 (2010 Dec 31  0:00)
2010-050B = RV223A9 = Chang'e 2 booster
1 37175U 10050B   10365.49923398  .00000000  00000-0  00000-0 2  4651
2 37175 078.0686 340.4680 2600342 289.4315 326.3285 00.04300188    07
